SL-16 R/B               
1 22803U 93059B   26082.16965776  .00000097  00000+0  71961-4 0  9999
2 22803  70.9929 342.7020 0017734 197.0379 163.0152 14.17235148681446
ARIANE 40 R/B           
1 22830U 93061H   26082.10600244  .00000222  00000+0  97220-4 0  9998
2 22830  98.4892 150.7274 0009734 240.7314 119.2898 14.32867753696024
COSMOS 2278             
1 23087U 94023A   26082.24736264 -.00000233  00000+0 -96987-4 0  9992
2 23087  71.0533 146.7356 0008916 350.9575   9.1385 14.14377541646729
SL-16 R/B               
1 23088U 94023B   26082.21706930  .00000217  00000+0  13683-3 0  9998
2 23088  71.0001  42.4760 0005474 272.6162  87.4334 14.15011419648005
SL-16 R/B               
1 23343U 94074B   26082.11648778  .00000515  00000+0  75612-4 0  9994
2 23343  97.7091 112.3896 0006856 165.2976 249.7752 14.79422951689239
SL-16 R/B               
1 23405U 94077B   26082.12274233  .00000206  00000+0  12972-3 0  9994
2 23405  70.9845 324.2303 0002311 198.8438 161.2599 14.15568042618132
ARIANE 40+ R/B          
1 23561U 95021B   26082.23088366  .00000322  00000+0  11641-3 0  9990
2 23561  98.4474 153.5285 0007970 101.4190 327.2879 14.39781932621197
SL-16 R/B               
1 23705U 95058B   26082.20103903 -.00000116  00000+0 -35201-4 0  9994
2 23705  71.0218 151.8906 0010168 100.7911 259.4358 14.15500741569760
SL-16 R/B               
1 24298U 96051B   26082.19708985  .00000099  00000+0  80122-4 0  9995
2 24298  70.7594 146.6508 0013949 126.6235 233.6170 14.12419385523550
ORBVIEW 2 (SEASTAR)     
1 24883U 97037A   26082.21885027  .00000293  00000+0  11795-3 0  9991
2 24883  98.8591 246.8907 0002659  43.4009 316.7385 14.35504132510417
SL-16 R/B               
1 25400U 98043G   26082.13277930  .00000080  00000+0  52578-4 0  9993
2 25400  98.8278  35.5933 0009506 341.7468  18.3369 14.26052758440903
SL-16 R/B               
1 25407U 98045B   26082.20533184 -.00000105  00000+0 -29110-4 0  9992
2 25407  71.0116 153.1532 0007674 346.6411  13.4508 14.16195505429019
ISS (ZARYA)             
1 25544U 98067A   26082.19556657  .00017435  00000+0  32964-3 0  9998
2 25544  51.6344   5.5946 0006192 222.9473 137.1033 15.48483260558424
CZ-4B R/B               
1 25732U 99025C   26082.14103237  .00000036  00000+0  38435-4 0  9998
2 25732  98.6599 126.1023 0036156 307.2154 118.2710 14.18267897390077
OKEAN-O                 
1 25860U 99039A   26082.17055044  .00000736  00000+0  10327-3 0  9996
2 25860  97.9414 141.9232 0000929  81.5659 278.5659 14.80356426436388
SL-16 R/B               
1 25861U 99039B   26081.86762376  .00000587  00000+0  81211-4 0  9990
2 25861  97.9938 140.9429 0014101 210.0978 149.9426 14.81748750438816
DELTA 2 R/B             
1 25876U 99041E   26082.17532979  .00000520  00000+0  12335-3 0  9995
2 25876  51.7602 247.4098 0502616  28.2101 334.5108 14.11868911364938
