[{"OBJECT_NAME":"SL-16 R/B","OBJECT_ID":"1993-059B","EPOCH":"2026-03-23T04:04:18.430464","MEAN_MOTION":14.17235148,"ECCENTRICITY":0.00177347,"INCLINATION":70.9929,"RA_OF_ASC_NODE":342.702,"ARG_OF_PERICENTER":197.0379,"MEAN_ANOMALY":163.0152,"EPHEMERIS_TYPE":0,"CLASSIFICATION_TYPE":"U","NORAD_CAT_ID":22803,"ELEMENT_SET_NO":999,"REV_AT_EPOCH":68144,"BSTAR":7.1960928e-5,"MEAN_MOTION_DOT":9.7e-7,"MEAN_MOTION_DDOT":0},{"OBJECT_NAME":"ARIANE 40 R/B","OBJECT_ID":"1993-061H","EPOCH":"2026-03-23T02:32:38.610816","MEAN_MOTION":14.32867753,"ECCENTRICITY":0.00097349,"INCLINATION":98.4892,"RA_OF_ASC_NODE":150.7274,"ARG_OF_PERICENTER":240.7314,"MEAN_ANOMALY":119.2898,"EPHEMERIS_TYPE":0,"CLASSIFICATION_TYPE":"U","NORAD_CAT_ID":22830,"ELEMENT_SET_NO":999,"REV_AT_EPOCH":69602,"BSTAR":9.7219901e-5,"MEAN_MOTION_DOT":2.22e-6,"MEAN_MOTION_DDOT":0},{"OBJECT_NAME":"COSMOS 2278","OBJECT_ID":"1994-023A","EPOCH":"2026-03-23T05:56:12.132096","MEAN_MOTION":14.14377541,"ECCENTRICITY":0.00089167,"INCLINATION":71.0533,"RA_OF_ASC_NODE":146.7356,"ARG_OF_PERICENTER":350.9575,"MEAN_ANOMALY":9.1385,"EPHEMERIS_TYPE":0,"CLASSIFICATION_TYPE":"U","NORAD_CAT_ID":23087,"ELEMENT_SET_NO":999,"REV_AT_EPOCH":64672,"BSTAR":-9.6986577e-5,"MEAN_MOTION_DOT":-2.33e-6,"MEAN_MOTION_DDOT":0},{"OBJECT_NAME":"SL-16 R/B","OBJECT_ID":"1994-023B","EPOCH":"2026-03-23T05:12:34.787520","MEAN_MOTION":14.15011419,"ECCENTRICITY":0.00054748,"INCLINATION":71.0001,"RA_OF_ASC_NODE":42.476,"ARG_OF_PERICENTER":272.6162,"MEAN_ANOMALY":87.4334,"EPHEMERIS_TYPE":0,"CLASSIFICATION_TYPE":"U","NORAD_CAT_ID":23088,"ELEMENT_SET_NO":999,"REV_AT_EPOCH":64800,"BSTAR":0.00013682558,"MEAN_MOTION_DOT":2.17e-6,"MEAN_MOTION_DDOT":0},{"OBJECT_NAME":"SL-16 R/B","OBJECT_ID":"1994-074B","EPOCH":"2026-03-23T02:47:44.544192","MEAN_MOTION":14.79422951,"ECCENTRICITY":0.00068564,"INCLINATION":97.7091,"RA_OF_ASC_NODE":112.3896,"ARG_OF_PERICENTER":165.2976,"MEAN_ANOMALY":249.7752,"EPHEMERIS_TYPE":0,"CLASSIFICATION_TYPE":"U","NORAD_CAT_ID":23343,"ELEMENT_SET_NO":999,"REV_AT_EPOCH":68923,"BSTAR":7.5612241e-5,"MEAN_MOTION_DOT":5.15e-6,"MEAN_MOTION_DDOT":0},{"OBJECT_NAME":"SL-16 R/B","OBJECT_ID":"1994-077B","EPOCH":"2026-03-23T02:56:44.937312","MEAN_MOTION":14.15568042,"ECCENTRICITY":0.00023113,"INCLINATION":70.9845,"RA_OF_ASC_NODE":324.2303,"ARG_OF_PERICENTER":198.8438,"MEAN_ANOMALY":161.2599,"EPHEMERIS_TYPE":0,"CLASSIFICATION_TYPE":"U","NORAD_CAT_ID":23405,"ELEMENT_SET_NO":999,"REV_AT_EPOCH":61813,"BSTAR":0.00012972351,"MEAN_MOTION_DOT":2.06e-6,"MEAN_MOTION_DDOT":0},{"OBJECT_NAME":"ARIANE 40+ R/B","OBJECT_ID":"1995-021B","EPOCH":"2026-03-23T05:32:28.348224","MEAN_MOTION":14.39781932,"ECCENTRICITY":0.00079706,"INCLINATION":98.4474,"RA_OF_ASC_NODE":153.5285,"ARG_OF_PERICENTER":101.419,"MEAN_ANOMALY":327.2879,"EPHEMERIS_TYPE":0,"CLASSIFICATION_TYPE":"U","NORAD_CAT_ID":23561,"ELEMENT_SET_NO":999,"REV_AT_EPOCH":62119,"BSTAR":0.00011640656,"MEAN_MOTION_DOT":3.22e-6,"MEAN_MOTION_DDOT":0},{"OBJECT_NAME":"SL-16 R/B","OBJECT_ID":"1995-058B","EPOCH":"2026-03-23T04:49:29.772192","MEAN_MOTION":14.15500741,"ECCENTRICITY":0.00101689,"INCLINATION":71.0218,"RA_OF_ASC_NODE":151.8906,"ARG_OF_PERICENTER":100.7911,"MEAN_ANOMALY":259.4358,"EPHEMERIS_TYPE":0,"CLASSIFICATION_TYPE":"U","NORAD_CAT_ID":23705,"ELEMENT_SET_NO":999,"REV_AT_EPOCH":56976,"BSTAR":-3.5201137e-5,"MEAN_MOTION_DOT":-1.16e-6,"MEAN_MOTION_DDOT":0},{"OBJECT_NAME":"SL-16 R/B","OBJECT_ID":"1996-051B","EPOCH":"2026-03-23T04:43:48.563040","MEAN_MOTION":14.12419385,"ECCENTRICITY":0.00139493,"INCLINATION":70.7594,"RA_OF_ASC_NODE":146.6508,"ARG_OF_PERICENTER":126.6235,"MEAN_ANOMALY":233.617,"EPHEMERIS_TYPE":0,"CLASSIFICATION_TYPE":"U","NORAD_CAT_ID":24298,"ELEMENT_SET_NO":999,"REV_AT_EPOCH":52355,"BSTAR":8.012156e-5,"MEAN_MOTION_DOT":9.9e-7,"MEAN_MOTION_DDOT":0},{"OBJECT_NAME":"ORBVIEW 2 (SEASTAR)","OBJECT_ID":"1997-037A","EPOCH":"2026-03-23T05:15:08.663328","MEAN_MOTION":14.35504132,"ECCENTRICITY":0.00026595,"INCLINATION":98.8591,"RA_OF_ASC_NODE":246.8907,"ARG_OF_PERICENTER":43.4009,"MEAN_ANOMALY":316.7385,"EPHEMERIS_TYPE":0,"CLASSIFICATION_TYPE":"U","NORAD_CAT_ID":24883,"ELEMENT_SET_NO":999,"REV_AT_EPOCH":51041,"BSTAR":0.00011794847,"MEAN_MOTION_DOT":2.93e-6,"MEAN_MOTION_DDOT":0},{"OBJECT_NAME":"SL-16 R/B","OBJECT_ID":"1998-043G","EPOCH":"2026-03-23T03:11:12.131520","MEAN_MOTION":14.26052758,"ECCENTRICITY":0.0009506,"INCLINATION":98.8278,"RA_OF_ASC_NODE":35.5933,"ARG_OF_PERICENTER":341.7468,"MEAN_ANOMALY":18.3369,"EPHEMERIS_TYPE":0,"CLASSIFICATION_TYPE":"U","NORAD_CAT_ID":25400,"ELEMENT_SET_NO":999,"REV_AT_EPOCH":44090,"BSTAR":5.2578079e-5,"MEAN_MOTION_DOT":8.0e-7,"MEAN_MOTION_DDOT":0},{"OBJECT_NAME":"SL-16 R/B","OBJECT_ID":"1998-045B","EPOCH":"2026-03-23T04:55:40.670976","MEAN_MOTION":14.16195505,"ECCENTRICITY":0.00076742,"INCLINATION":71.0116,"RA_OF_ASC_NODE":153.1532,"ARG_OF_PERICENTER":346.6411,"MEAN_ANOMALY":13.4508,"EPHEMERIS_TYPE":0,"CLASSIFICATION_TYPE":"U","NORAD_CAT_ID":25407,"ELEMENT_SET_NO":999,"REV_AT_EPOCH":42901,"BSTAR":-2.9109909e-5,"MEAN_MOTION_DOT":-1.05e-6,"MEAN_MOTION_DDOT":0},{"OBJECT_NAME":"ISS (ZARYA)","OBJECT_ID":"1998-067A","EPOCH":"2026-03-23T04:41:36.951648","MEAN_MOTION":15.4848326,"ECCENTRICITY":0.00061926,"INCLINATION":51.6344,"RA_OF_ASC_NODE":5.5946,"ARG_OF_PERICENTER":222.9473,"MEAN_ANOMALY":137.1033,"EPHEMERIS_TYPE":0,"CLASSIFICATION_TYPE":"U","NORAD_CAT_ID":25544,"ELEMENT_SET_NO":999,"REV_AT_EPOCH":55842,"BSTAR":0.00032963634,"MEAN_MOTION_DOT":0.00017435,"MEAN_MOTION_DDOT":0},{"OBJECT_NAME":"CZ-4B R/B","OBJECT_ID":"1999-025C","EPOCH":"2026-03-23T03:23:05.196768","MEAN_MOTION":14.18267897,"ECCENTRICITY":0.00361563,"INCLINATION":98.6599,"RA_OF_ASC_NODE":126.1023,"ARG_OF_PERICENTER":307.2154,"MEAN_ANOMALY":118.271,"EPHEMERIS_TYPE":0,"CLASSIFICATION_TYPE":"U","NORAD_CAT_ID":25732,"ELEMENT_SET_NO":999,"REV_AT_EPOCH":39007,"BSTAR":3.8435411e-5,"MEAN_MOTION_DOT":3.6e-7,"MEAN_MOTION_DDOT":0},{"OBJECT_NAME":"OKEAN-O","OBJECT_ID":"1999-039A","EPOCH":"2026-03-23T04:05:35.558016","MEAN_MOTION":14.80356426,"ECCENTRICITY":9.298e-5,"INCLINATION":97.9414,"RA_OF_ASC_NODE":141.9232,"ARG_OF_PERICENTER":81.5659,"MEAN_ANOMALY":278.5659,"EPHEMERIS_TYPE":0,"CLASSIFICATION_TYPE":"U","NORAD_CAT_ID":25860,"ELEMENT_SET_NO":999,"REV_AT_EPOCH":43638,"BSTAR":0.00010327102,"MEAN_MOTION_DOT":7.36e-6,"MEAN_MOTION_DDOT":0},{"OBJECT_NAME":"SL-16 R/B","OBJECT_ID":"1999-039B","EPOCH":"2026-03-22T20:49:22.692864","MEAN_MOTION":14.8174875,"ECCENTRICITY":0.0014101,"INCLINATION":97.9938,"RA_OF_ASC_NODE":140.9429,"ARG_OF_PERICENTER":210.0978,"MEAN_ANOMALY":149.9426,"EPHEMERIS_TYPE":0,"CLASSIFICATION_TYPE":"U","NORAD_CAT_ID":25861,"ELEMENT_SET_NO":999,"REV_AT_EPOCH":43881,"BSTAR":8.1211425e-5,"MEAN_MOTION_DOT":5.87e-6,"MEAN_MOTION_DDOT":0},{"OBJECT_NAME":"DELTA 2 R/B","OBJECT_ID":"1999-041E","EPOCH":"2026-03-23T04:12:28.493856","MEAN_MOTION":14.11868911,"ECCENTRICITY":0.05026167,"INCLINATION":51.7602,"RA_OF_ASC_NODE":247.4098,"ARG_OF_PERICENTER":28.2101,"MEAN_ANOMALY":334.5108,"EPHEMERIS_TYPE":0,"CLASSIFICATION_TYPE":"U","NORAD_CAT_ID":25876,"ELEMENT_SET_NO":999,"REV_AT_EPOCH":36493,"BSTAR":0.00012335036,"MEAN_MOTION_DOT":5.2e-6,"MEAN_MOTION_DDOT":0}]
